{"type": "FeatureCollection", "features": [ {"type": "Feature", "properties": {"norad_id": 59598, "name": "GSAT0225 (GALILEO 29)", "group": "gnss", "lat": 53.4515650655084, "lon": 177.1602297897427, "alt_km": 23216.409156353846, "timestamp": "2025-12-09T11:33:55.043191+00:00", "meta": {"OBJECT_NAME": "GSAT0225 (GALILEO 29)", "OBJECT_ID": "2024-079A", "EPOCH": "2025-12-07T13:01:48.128160", "MEAN_MOTION": 1.70474573, "ECCENTRICITY": 0.0002046, "INCLINATION": 54.9986, "RA_OF_ASC_NODE": 106.4402, "ARG_OF_PERICENTER": 173.6326, "MEAN_ANOMALY": 155.0404, "EPHEMERIS_TYPE": 0, "CLASSIFICATION_TYPE": "U", "NORAD_CAT_ID": 59598, "ELEMENT_SET_NO": 999, "REV_AT_EPOCH": 1004, "BSTAR": 0, "MEAN_MOTION_DOT": 7e-08, "MEAN_MOTION_DDOT": 0}, "tle": {"line1": "1 59598U 24079A   25341.54291815  .00000007  00000+0  00000+0 0  9993", "line2": "2 59598  54.9986 106.4402 0002046 173.6326 155.0404  1.70474573 10048"}}, "geometry": {"type": "Point", "coordinates": [177.1602297897427, 53.4515650655084]}}, {"type": "Feature", "properties": {"norad_id": 59600, "name": "GSAT0227 (GALILEO 30)", "group": "gnss", "lat": -27.15091099592654, "lon": 85.33327950395115, "alt_km": 23233.894888422205, "timestamp": "2025-12-09T11:33:55.043202+00:00", "meta": {"OBJECT_NAME": "GSAT0227 (GALILEO 30)", "OBJECT_ID": "2024-079C", "EPOCH": "2025-12-08T08:44:01.424832", "MEAN_MOTION": 1.70474656, "ECCENTRICITY": 0.00032972, "INCLINATION": 54.9942, "RA_OF_ASC_NODE": 106.4167, "ARG_OF_PERICENTER": 114.0276, "MEAN_ANOMALY": 245.9681, "EPHEMERIS_TYPE": 0, "CLASSIFICATION_TYPE": "U", "NORAD_CAT_ID": 59600, "ELEMENT_SET_NO": 999, "REV_AT_EPOCH": 1011, "BSTAR": 0, "MEAN_MOTION_DOT": 8e-08, "MEAN_MOTION_DDOT": 0}, "tle": {"line1": "1 59600U 24079C   25342.36390538  .00000008  00000+0  00000+0 0  9991", "line2": "2 59600  54.9942 106.4167 0003297 114.0276 245.9681  1.70474656 10110"}}, "geometry": {"type": "Point", "coordinates": [85.33327950395115, -27.15091099592654]}}, {"type": "Feature", "properties": {"norad_id": 61182, "name": "GSAT0232 (GALILEO 32)", "group": "gnss", "lat": 15.818291599595039, "lon": 35.19371049733483, "alt_km": 23216.733996854637, "timestamp": "2025-12-09T11:33:55.043213+00:00", "meta": {"OBJECT_NAME": "GSAT0232 (GALILEO 32)", "OBJECT_ID": "2024-167A", "EPOCH": "2025-12-08T22:09:29.829888", "MEAN_MOTION": 1.70473333, "ECCENTRICITY": 0.000203, "INCLINATION": 55.2421, "RA_OF_ASC_NODE": 226.5356, "ARG_OF_PERICENTER": 212.642, "MEAN_ANOMALY": 325.1995, "EPHEMERIS_TYPE": 0, "CLASSIFICATION_TYPE": "U", "NORAD_CAT_ID": 61182, "ELEMENT_SET_NO": 999, "REV_AT_EPOCH": 763, "BSTAR": 0, "MEAN_MOTION_DOT": 1.4e-07, "MEAN_MOTION_DDOT": 0}, "tle": {"line1": "1 61182U 24167A   25342.92326192  .00000014  00000+0  00000+0 0  9991", "line2": "2 61182  55.2421 226.5356 0002030 212.6420 325.1995  1.70473333  7631"}}, "geometry": {"type": "Point", "coordinates": [35.19371049733483, 15.818291599595039]}}, {"type": "Feature", "properties": {"norad_id": 61183, "name": "GSAT0226 (GALILEO 31)", "group": "gnss", "lat": -55.11115775503482, "lon": 142.27536036510682, "alt_km": 23230.279549898998, "timestamp": "2025-12-09T11:33:55.043228+00:00", "meta": {"OBJECT_NAME": "GSAT0226 (GALILEO 31)", "OBJECT_ID": "2024-167B", "EPOCH": "2025-12-09T04:40:23.432160", "MEAN_MOTION": 1.70473456, "ECCENTRICITY": 8.07e-05, "INCLINATION": 55.2405, "RA_OF_ASC_NODE": 226.5334, "ARG_OF_PERICENTER": 119.9636, "MEAN_ANOMALY": 337.1316, "EPHEMERIS_TYPE": 0, "CLASSIFICATION_TYPE": "U", "NORAD_CAT_ID": 61183, "ELEMENT_SET_NO": 999, "REV_AT_EPOCH": 761, "BSTAR": 0, "MEAN_MOTION_DOT": 1.2e-07, "MEAN_MOTION_DDOT": 0}, "tle": {"line1": "1 61183U 24167B   25343.19471565  .00000012  00000+0  00000+0 0  9995", "line2": "2 61183  55.2405 226.5334 0000807 119.9636 337.1316  1.70473456  7612"}}, "geometry": {"type": "Point", "coordinates": [142.27536036510682, -55.11115775503482]}}, {"type": "Feature", "properties": {"norad_id": 61186, "name": "BEIDOU-3 M25 (C47)", "group": "gnss", "lat": 50.32231155260055, "lon": 7.598169394249816, "alt_km": 21532.92377860315, "timestamp": "2025-12-09T11:33:55.043239+00:00", "meta": {"OBJECT_NAME": "BEIDOU-3 M25 (C47)", "OBJECT_ID": "2024-168B", "EPOCH": "2025-12-08T20:08:08.310912", "MEAN_MOTION": 1.8622988, "ECCENTRICITY": 0.00054406, "INCLINATION": 54.6453, "RA_OF_ASC_NODE": 308.8544, "ARG_OF_PERICENTER": 295.846, "MEAN_ANOMALY": 63.7287, "EPHEMERIS_TYPE": 0, "CLASSIFICATION_TYPE": "U", "NORAD_CAT_ID": 61186, "ELEMENT_SET_NO": 999, "REV_AT_EPOCH": 823, "BSTAR": 0, "MEAN_MOTION_DOT": -7.5e-07, "MEAN_MOTION_DDOT": 0}, "tle": {"line1": "1 61186U 24168B   25342.83898508 -.00000075  00000+0  00000+0 0  9999", "line2": "2 61186  54.6453 308.8544 0005440 295.8460  63.7287  1.86229880  8230"}}, "geometry": {"type": "Point", "coordinates": [7.598169394249816, 50.32231155260055]}}, {"type": "Feature", "properties": {"norad_id": 61187, "name": "BEIDOU-3 M27 (C49)", "group": "gnss", "lat": -20.6206031728609, "lon": 144.2829495036649, "alt_km": 21534.999415327547, "timestamp": "2025-12-09T11:33:55.043250+00:00", "meta": {"OBJECT_NAME": "BEIDOU-3 M27 (C49)", "OBJECT_ID": "2024-168C", "EPOCH": "2025-12-09T05:48:09.836064", "MEAN_MOTION": 1.8623006, "ECCENTRICITY": 0.0002331, "INCLINATION": 54.6404, "RA_OF_ASC_NODE": 308.8241, "ARG_OF_PERICENTER": 334.1431, "MEAN_ANOMALY": 70.4249, "EPHEMERIS_TYPE": 0, "CLASSIFICATION_TYPE": "U", "NORAD_CAT_ID": 61187, "ELEMENT_SET_NO": 999, "REV_AT_EPOCH": 572, "BSTAR": 0, "MEAN_MOTION_DOT": -7.6e-07, "MEAN_MOTION_DDOT": 0}, "tle": {"line1": "1 61187U 24168C   25343.24178051 -.00000076  00000+0  00000+0 0  9991", "line2": "2 61187  54.6404 308.8241 0002331 334.1431  70.4249  1.86230060  5728"}}, "geometry": {"type": "Point", "coordinates": [144.2829495036649, -20.6206031728609]}}, {"type": "Feature", "properties": {"norad_id": 62339, "name": "GPS BIII-7  (PRN 01)", "group": "gnss", "lat": 49.514740595629, "lon": 37.256818932877565, "alt_km": 20172.974589935842, "timestamp": "2025-12-09T11:33:55.043263+00:00", "meta": {"OBJECT_NAME": "GPS BIII-7  (PRN 01)", "OBJECT_ID": "2024-242A", "EPOCH": "2025-12-07T21:14:38.700960", "MEAN_MOTION": 2.00567469, "ECCENTRICITY": 0.00119344, "INCLINATION": 54.9247, "RA_OF_ASC_NODE": 341.9365, "ARG_OF_PERICENTER": 343.8064, "MEAN_ANOMALY": 11.4848, "EPHEMERIS_TYPE": 0, "CLASSIFICATION_TYPE": "U", "NORAD_CAT_ID": 62339, "ELEMENT_SET_NO": 999, "REV_AT_EPOCH": 741, "BSTAR": 0, "MEAN_MOTION_DOT": -8.7e-07, "MEAN_MOTION_DDOT": 0}, "tle": {"line1": "1 62339U 24242A   25341.88517015 -.00000087  00000+0  00000+0 0  9991", "line2": "2 62339  54.9247 341.9365 0011934 343.8064  11.4848  2.00567469  7410"}}, "geometry": {"type": "Point", "coordinates": [37.256818932877565, 49.514740595629]}}, {"type": "Feature", "properties": {"norad_id": 62850, "name": "NVS-02 (IRNSS-1K)", "group": "gnss", "lat": -3.0625494665909208, "lon": 156.8498601892643, "alt_km": 33223.04919393108, "timestamp": "2025-12-09T11:33:55.043275+00:00", "meta": {"OBJECT_NAME": "NVS-02 (IRNSS-1K)", "OBJECT_ID": "2025-020A", "EPOCH": "2025-12-08T20:55:25.330080", "MEAN_MOTION": 2.17590396, "ECCENTRICITY": 0.7347709, "INCLINATION": 20.9939, "RA_OF_ASC_NODE": 329.0605, "ARG_OF_PERICENTER": 23.7216, "MEAN_ANOMALY": 357.4978, "EPHEMERIS_TYPE": 0, "CLASSIFICATION_TYPE": "U", "NORAD_CAT_ID": 62850, "ELEMENT_SET_NO": 999, "REV_AT_EPOCH": 683, "BSTAR": 0.00031399, "MEAN_MOTION_DOT": 1.58e-06, "MEAN_MOTION_DDOT": 0}, "tle": {"line1": "1 62850U 25020A   25342.87182095  .00000158  00000+0  31399-3 0  9997", "line2": "2 62850  20.9939 329.0605 7347709  23.7216 357.4978  2.17590396  6830"}}, "geometry": {"type": "Point", "coordinates": [156.8498601892643, -3.0625494665909208]}}, {"type": "Feature", "properties": {"norad_id": 63130, "name": "COSMOS 2584 (704K)", "group": "gnss", "lat": -51.72757449967981, "lon": 43.021559218946535, "alt_km": 19133.700894902104, "timestamp": "2025-12-09T11:33:55.043290+00:00", "meta": {"OBJECT_NAME": "COSMOS 2584 (704K)", "OBJECT_ID": "2025-042A", "EPOCH": "2025-12-08T03:39:29.178720", "MEAN_MOTION": 2.13102925, "ECCENTRICITY": 0.0007602, "INCLINATION": 64.9737, "RA_OF_ASC_NODE": 79.3022, "ARG_OF_PERICENTER": 215.9611, "MEAN_ANOMALY": 144.0025, "EPHEMERIS_TYPE": 0, "CLASSIFICATION_TYPE": "U", "NORAD_CAT_ID": 63130, "ELEMENT_SET_NO": 999, "REV_AT_EPOCH": 597, "BSTAR": 0, "MEAN_MOTION_DOT": -1.2e-07, "MEAN_MOTION_DDOT": 0}, "tle": {"line1": "1 63130U 25042A   25342.15242105 -.00000012  00000+0  00000+0 0  9994", "line2": "2 63130  64.9737  79.3022 0007602 215.9611 144.0025  2.13102925  5976"}}, "geometry": {"type": "Point", "coordinates": [43.021559218946535, -51.72757449967981]}}, {"type": "Feature", "properties": {"norad_id": 64202, "name": "GPS BIII-8  (PRN 21)", "group": "gnss", "lat": -53.28082353061666, "lon": -71.9883544977005, "alt_km": 20179.404983998804, "timestamp": "2025-12-09T11:33:55.043301+00:00", "meta": {"OBJECT_NAME": "GPS BIII-8  (PRN 21)", "OBJECT_ID": "2025-116A", "EPOCH": "2025-12-09T02:55:25.286016", "MEAN_MOTION": 2.00558368, "ECCENTRICITY": 0.0005263, "INCLINATION": 55.1032, "RA_OF_ASC_NODE": 38.7868, "ARG_OF_PERICENTER": 307.5072, "MEAN_ANOMALY": 50.3343, "EPHEMERIS_TYPE": 0, "CLASSIFICATION_TYPE": "U", "NORAD_CAT_ID": 64202, "ELEMENT_SET_NO": 999, "REV_AT_EPOCH": 405, "BSTAR": 0, "MEAN_MOTION_DOT": -8.4e-07, "MEAN_MOTION_DDOT": 0}, "tle": {"line1": "1 64202U 25116A   25343.12182044 -.00000084  00000+0  00000+0 0  9999", "line2": "2 64202  55.1032  38.7868 0005263 307.5072  50.3343  2.00558368  4056"}}, "geometry": {"type": "Point", "coordinates": [-71.9883544977005, -53.28082353061666]}}]}